<?xml version="1.0" encoding="UTF-8"?>
<ndm xmlns:xsi="http://www.w3.org/2001/XMLSchema-instance" xsi:noNamespaceSchemaLocation="https://sanaregistry.org/r/ndmxml_unqualified/ndmxml-2.0.0-master-2.0.xsd">
<omm id="CCSDS_OMM_VERS" version="2.0">
<header><CREATION_DATE/><ORIGINATOR/></header><body><segment><metadata><OBJECT_NAME>ORBCOMM FM24 [-]</OBJECT_NAME><OBJECT_ID>1998-053D</OBJECT_ID><CENTER_NAME>EARTH</CENTER_NAME><REF_FRAME>TEME</REF_FRAME><TIME_SYSTEM>UTC</TIME_SYSTEM><MEAN_ELEMENT_THEORY>SGP4</MEAN_ELEMENT_THEORY></metadata><data><meanElements><EPOCH>2024-02-16T09:48:49.172544</EPOCH><MEAN_MOTION>14.35258533</MEAN_MOTION><ECCENTRICITY>.0003169</ECCENTRICITY><INCLINATION>45.0090</INCLINATION><RA_OF_ASC_NODE>51.8388</RA_OF_ASC_NODE><ARG_OF_PERICENTER>292.1875</ARG_OF_PERICENTER><MEAN_ANOMALY>67.8636</MEAN_ANOMALY></meanElements><tleParameters><EPHEMERIS_TYPE>0</EPHEMERIS_TYPE><CLASSIFICATION_TYPE>U</CLASSIFICATION_TYPE><NORAD_CAT_ID>25478</NORAD_CAT_ID><ELEMENT_SET_NO>999</ELEMENT_SET_NO><REV_AT_EPOCH>32772</REV_AT_EPOCH><BSTAR>.98408E-3</BSTAR><MEAN_MOTION_DOT>.2702E-4</MEAN_MOTION_DOT><MEAN_MOTION_DDOT>0</MEAN_MOTION_DDOT></tleParameters></data></segment></body></omm>
<omm id="CCSDS_OMM_VERS" version="2.0">
<header><CREATION_DATE/><ORIGINATOR/></header><body><segment><metadata><OBJECT_NAME>ORBCOMM FM25 [-]</OBJECT_NAME><OBJECT_ID>1998-053E</OBJECT_ID><CENTER_NAME>EARTH</CENTER_NAME><REF_FRAME>TEME</REF_FRAME><TIME_SYSTEM>UTC</TIME_SYSTEM><MEAN_ELEMENT_THEORY>SGP4</MEAN_ELEMENT_THEORY></metadata><data><meanElements><EPOCH>2024-02-16T00:37:34.653792</EPOCH><MEAN_MOTION>14.35239457</MEAN_MOTION><ECCENTRICITY>.0005384</ECCENTRICITY><INCLINATION>45.0081</INCLINATION><RA_OF_ASC_NODE>51.8845</RA_OF_ASC_NODE><ARG_OF_PERICENTER>311.2385</ARG_OF_PERICENTER><MEAN_ANOMALY>48.7997</MEAN_ANOMALY></meanElements><tleParameters><EPHEMERIS_TYPE>0</EPHEMERIS_TYPE><CLASSIFICATION_TYPE>U</CLASSIFICATION_TYPE><NORAD_CAT_ID>25479</NORAD_CAT_ID><ELEMENT_SET_NO>999</ELEMENT_SET_NO><REV_AT_EPOCH>32768</REV_AT_EPOCH><BSTAR>.89531E-3</BSTAR><MEAN_MOTION_DOT>.2445E-4</MEAN_MOTION_DOT><MEAN_MOTION_DDOT>0</MEAN_MOTION_DDOT></tleParameters></data></segment></body></omm>
<omm id="CCSDS_OMM_VERS" version="2.0">
<header><CREATION_DATE/><ORIGINATOR/></header><body><segment><metadata><OBJECT_NAME>ORBCOMM FM26 [-]</OBJECT_NAME><OBJECT_ID>1998-053F</OBJECT_ID><CENTER_NAME>EARTH</CENTER_NAME><REF_FRAME>TEME</REF_FRAME><TIME_SYSTEM>UTC</TIME_SYSTEM><MEAN_ELEMENT_THEORY>SGP4</MEAN_ELEMENT_THEORY></metadata><data><meanElements><EPOCH>2024-02-16T00:02:19.552416</EPOCH><MEAN_MOTION>14.34740176</MEAN_MOTION><ECCENTRICITY>.0006849</ECCENTRICITY><INCLINATION>45.0079</INCLINATION><RA_OF_ASC_NODE>45.7811</RA_OF_ASC_NODE><ARG_OF_PERICENTER>333.2178</ARG_OF_PERICENTER><MEAN_ANOMALY>26.8315</MEAN_ANOMALY></meanElements><tleParameters><EPHEMERIS_TYPE>0</EPHEMERIS_TYPE><CLASSIFICATION_TYPE>U</CLASSIFICATION_TYPE><NORAD_CAT_ID>25480</NORAD_CAT_ID><ELEMENT_SET_NO>999</ELEMENT_SET_NO><REV_AT_EPOCH>32772</REV_AT_EPOCH><BSTAR>.76419E-3</BSTAR><MEAN_MOTION_DOT>.2045E-4</MEAN_MOTION_DOT><MEAN_MOTION_DDOT>0</MEAN_MOTION_DDOT></tleParameters></data></segment></body></omm>
<omm id="CCSDS_OMM_VERS" version="2.0">
<header><CREATION_DATE/><ORIGINATOR/></header><body><segment><metadata><OBJECT_NAME>ORBCOMM FM27 [+]</OBJECT_NAME><OBJECT_ID>1998-053G</OBJECT_ID><CENTER_NAME>EARTH</CENTER_NAME><REF_FRAME>TEME</REF_FRAME><TIME_SYSTEM>UTC</TIME_SYSTEM><MEAN_ELEMENT_THEORY>SGP4</MEAN_ELEMENT_THEORY></metadata><data><meanElements><EPOCH>2024-02-15T22:38:31.261632</EPOCH><MEAN_MOTION>14.35213845</MEAN_MOTION><ECCENTRICITY>.0001786</ECCENTRICITY><INCLINATION>45.0065</INCLINATION><RA_OF_ASC_NODE>52.5374</RA_OF_ASC_NODE><ARG_OF_PERICENTER>279.1695</ARG_OF_PERICENTER><MEAN_ANOMALY>80.8950</MEAN_ANOMALY></meanElements><tleParameters><EPHEMERIS_TYPE>0</EPHEMERIS_TYPE><CLASSIFICATION_TYPE>U</CLASSIFICATION_TYPE><NORAD_CAT_ID>25481</NORAD_CAT_ID><ELEMENT_SET_NO>999</ELEMENT_SET_NO><REV_AT_EPOCH>32764</REV_AT_EPOCH><BSTAR>.86963E-3</BSTAR><MEAN_MOTION_DOT>.2369E-4</MEAN_MOTION_DOT><MEAN_MOTION_DDOT>0</MEAN_MOTION_DDOT></tleParameters></data></segment></body></omm>
<omm id="CCSDS_OMM_VERS" version="2.0">
<header><CREATION_DATE/><ORIGINATOR/></header><body><segment><metadata><OBJECT_NAME>ORBCOMM FM28 [-]</OBJECT_NAME><OBJECT_ID>1998-053H</OBJECT_ID><CENTER_NAME>EARTH</CENTER_NAME><REF_FRAME>TEME</REF_FRAME><TIME_SYSTEM>UTC</TIME_SYSTEM><MEAN_ELEMENT_THEORY>SGP4</MEAN_ELEMENT_THEORY></metadata><data><meanElements><EPOCH>2024-02-15T21:17:06.243648</EPOCH><MEAN_MOTION>14.35682721</MEAN_MOTION><ECCENTRICITY>.0004874</ECCENTRICITY><INCLINATION>45.0075</INCLINATION><RA_OF_ASC_NODE>351.5639</RA_OF_ASC_NODE><ARG_OF_PERICENTER>0.2450</ARG_OF_PERICENTER><MEAN_ANOMALY>359.8399</MEAN_ANOMALY></meanElements><tleParameters><EPHEMERIS_TYPE>0</EPHEMERIS_TYPE><CLASSIFICATION_TYPE>U</CLASSIFICATION_TYPE><NORAD_CAT_ID>25482</NORAD_CAT_ID><ELEMENT_SET_NO>999</ELEMENT_SET_NO><REV_AT_EPOCH>32826</REV_AT_EPOCH><BSTAR>.95198E-3</BSTAR><MEAN_MOTION_DOT>.2633E-4</MEAN_MOTION_DOT><MEAN_MOTION_DDOT>0</MEAN_MOTION_DDOT></tleParameters></data></segment></body></omm>
<omm id="CCSDS_OMM_VERS" version="2.0">
<header><CREATION_DATE/><ORIGINATOR/></header><body><segment><metadata><OBJECT_NAME>ORBCOMM FM30 [-]</OBJECT_NAME><OBJECT_ID>1999-065A</OBJECT_ID><CENTER_NAME>EARTH</CENTER_NAME><REF_FRAME>TEME</REF_FRAME><TIME_SYSTEM>UTC</TIME_SYSTEM><MEAN_ELEMENT_THEORY>SGP4</MEAN_ELEMENT_THEORY></metadata><data><meanElements><EPOCH>2024-02-16T04:20:08.876256</EPOCH><MEAN_MOTION>14.34881165</MEAN_MOTION><ECCENTRICITY>.0006263</ECCENTRICITY><INCLINATION>45.0304</INCLINATION><RA_OF_ASC_NODE>230.3860</RA_OF_ASC_NODE><ARG_OF_PERICENTER>94.8652</ARG_OF_PERICENTER><MEAN_ANOMALY>265.2911</MEAN_ANOMALY></meanElements><tleParameters><EPHEMERIS_TYPE>0</EPHEMERIS_TYPE><CLASSIFICATION_TYPE>U</CLASSIFICATION_TYPE><NORAD_CAT_ID>25980</NORAD_CAT_ID><ELEMENT_SET_NO>999</ELEMENT_SET_NO><REV_AT_EPOCH>26497</REV_AT_EPOCH><BSTAR>.78627E-3</BSTAR><MEAN_MOTION_DOT>.2114E-4</MEAN_MOTION_DOT><MEAN_MOTION_DDOT>0</MEAN_MOTION_DDOT></tleParameters></data></segment></body></omm>
<omm id="CCSDS_OMM_VERS" version="2.0">
<header><CREATION_DATE/><ORIGINATOR/></header><body><segment><metadata><OBJECT_NAME>ORBCOMM FM31 [-]</OBJECT_NAME><OBJECT_ID>1999-065B</OBJECT_ID><CENTER_NAME>EARTH</CENTER_NAME><REF_FRAME>TEME</REF_FRAME><TIME_SYSTEM>UTC</TIME_SYSTEM><MEAN_ELEMENT_THEORY>SGP4</MEAN_ELEMENT_THEORY></metadata><data><meanElements><EPOCH>2024-02-15T19:09:52.040736</EPOCH><MEAN_MOTION>14.34891028</MEAN_MOTION><ECCENTRICITY>.0003645</ECCENTRICITY><INCLINATION>45.0216</INCLINATION><RA_OF_ASC_NODE>225.9442</RA_OF_ASC_NODE><ARG_OF_PERICENTER>120.4905</ARG_OF_PERICENTER><MEAN_ANOMALY>239.6303</MEAN_ANOMALY></meanElements><tleParameters><EPHEMERIS_TYPE>0</EPHEMERIS_TYPE><CLASSIFICATION_TYPE>U</CLASSIFICATION_TYPE><NORAD_CAT_ID>25981</NORAD_CAT_ID><ELEMENT_SET_NO>999</ELEMENT_SET_NO><REV_AT_EPOCH>26394</REV_AT_EPOCH><BSTAR>.82596E-3</BSTAR><MEAN_MOTION_DOT>.2228E-4</MEAN_MOTION_DOT><MEAN_MOTION_DDOT>0</MEAN_MOTION_DDOT></tleParameters></data></segment></body></omm>
<omm id="CCSDS_OMM_VERS" version="2.0">
<header><CREATION_DATE/><ORIGINATOR/></header><body><segment><metadata><OBJECT_NAME>ORBCOMM FM32 [+]</OBJECT_NAME><OBJECT_ID>1999-065C</OBJECT_ID><CENTER_NAME>EARTH</CENTER_NAME><REF_FRAME>TEME</REF_FRAME><TIME_SYSTEM>UTC</TIME_SYSTEM><MEAN_ELEMENT_THEORY>SGP4</MEAN_ELEMENT_THEORY></metadata><data><meanElements><EPOCH>2024-02-16T04:57:51.449472</EPOCH><MEAN_MOTION>14.33863973</MEAN_MOTION><ECCENTRICITY>.0006024</ECCENTRICITY><INCLINATION>45.0145</INCLINATION><RA_OF_ASC_NODE>237.2108</RA_OF_ASC_NODE><ARG_OF_PERICENTER>119.5970</ARG_OF_PERICENTER><MEAN_ANOMALY>240.5478</MEAN_ANOMALY></meanElements><tleParameters><EPHEMERIS_TYPE>0</EPHEMERIS_TYPE><CLASSIFICATION_TYPE>U</CLASSIFICATION_TYPE><NORAD_CAT_ID>25982</NORAD_CAT_ID><ELEMENT_SET_NO>999</ELEMENT_SET_NO><REV_AT_EPOCH>26477</REV_AT_EPOCH><BSTAR>.72104E-3</BSTAR><MEAN_MOTION_DOT>.1885E-4</MEAN_MOTION_DOT><MEAN_MOTION_DDOT>0</MEAN_MOTION_DDOT></tleParameters></data></segment></body></omm>

</ndm>
