ORBCOMM FM24 [-]        
1 25478U 98053D   24047.40890246  .00002702  00000+0  98408-3 0  9993
2 25478  45.0090  51.8388 0003169 292.1875  67.8636 14.35258533327728
ORBCOMM FM25 [-]        
1 25479U 98053E   24047.02609553  .00002445  00000+0  89531-3 0  9992
2 25479  45.0081  51.8845 0005384 311.2385  48.7997 14.35239457327684
ORBCOMM FM26 [-]        
1 25480U 98053F   24047.00161519  .00002045  00000+0  76419-3 0  9994
2 25480  45.0079  45.7811 0006849 333.2178  26.8315 14.34740176327729
ORBCOMM FM27 [+]        
1 25481U 98053G   24046.94341738  .00002369  00000+0  86963-3 0  9994
2 25481  45.0065  52.5374 0001786 279.1695  80.8950 14.35213845327647
ORBCOMM FM28 [-]        
1 25482U 98053H   24046.88687782  .00002633  00000+0  95198-3 0  9994
2 25482  45.0075 351.5639 0004874   0.2450 359.8399 14.35682721328266
ORBCOMM FM30 [-]        
1 25980U 99065A   24047.18065829  .00002114  00000+0  78627-3 0  9999
2 25980  45.0304 230.3860 0006263  94.8652 265.2911 14.34881165264970
ORBCOMM FM31 [-]        
1 25981U 99065B   24046.79851899  .00002228  00000+0  82596-3 0  9992
2 25981  45.0216 225.9442 0003645 120.4905 239.6303 14.34891028263942
ORBCOMM FM32 [+]        
1 25982U 99065C   24047.20684548  .00001885  00000+0  72104-3 0  9997
2 25982  45.0145 237.2108 0006024 119.5970 240.5478 14.33863973264777
